[{"OBJECT_NAME":"STARLINK-30123","OBJECT_ID":"2023-079R","EPOCH":"2026-03-09T06:44:27.035808","MEAN_MOTION":15.2758213,"ECCENTRICITY":5.731e-5,"INCLINATION":43.0029,"RA_OF_ASC_NODE":36.2461,"ARG_OF_PERICENTER":244.6069,"MEAN_ANOMALY":115.4724,"EPHEMERIS_TYPE":0,"CLASSIFICATION_TYPE":"U","NORAD_CAT_ID":56838,"ELEMENT_SET_NO":999,"REV_AT_EPOCH":15368,"BSTAR":-6.6310662e-5,"MEAN_MOTION_DOT":-2.086e-5,"MEAN_MOTION_DDOT":0},{"OBJECT_NAME":"CZ-4C R\/B","OBJECT_ID":"2015-069B","EPOCH":"2026-03-09T18:13:41.887776","MEAN_MOTION":15.30824061,"ECCENTRICITY":0.00587215,"INCLINATION":97.486,"RA_OF_ASC_NODE":137.7913,"ARG_OF_PERICENTER":156.3643,"MEAN_ANOMALY":204.0316,"EPHEMERIS_TYPE":0,"CLASSIFICATION_TYPE":"U","NORAD_CAT_ID":41039,"ELEMENT_SET_NO":999,"REV_AT_EPOCH":56689,"BSTAR":0.0003480254,"MEAN_MOTION_DOT":0.00010856,"MEAN_MOTION_DDOT":0}]
